[
  {
    "name": "INTELSAT 902 (IS-902)",
    "line1": "1 26900U 01039A   26171.16820361 -.00000290  00000+0  00000+0 0  9994",
    "line2": "2 26900   6.1243  71.7474 0004280  14.2873 192.7993  1.00270935 90729"
  },
  {
    "name": "INTELSAT 904 (IS-904)",
    "line1": "1 27380U 02007A   26171.10054338 -.00000233  00000+0  00000+0 0  9997",
    "line2": "2 27380   6.9283  69.1510 0006584   7.3069 196.5436  1.00270151 51793"
  },
  {
    "name": "DIRECTV 5 (TEMPO 1)",
    "line1": "1 27426U 02023A   26171.41885338 -.00000063  00000+0  00000+0 0  9993",
    "line2": "2 27426   4.8871  75.2720 0003240  16.1878 217.8431  1.00272003 88157"
  },
  {
    "name": "INTELSAT 905 (IS-905)",
    "line1": "1 27438U 02027A   26171.36475514  .00000087  00000+0  00000+0 0  9990",
    "line2": "2 27438   6.7625  69.7638 0003977  23.7456 169.1624  1.00272920 51394"
  },
  {
    "name": "GALAXY 3C (G-3C)",
    "line1": "1 27445U 02030A   26171.35461541 -.00000158  00000+0  00000+0 0  9996",
    "line2": "2 27445   3.7412  77.9368 0001690  28.7445 194.6953  1.00271504 46521"
  },
  {
    "name": "INTELSAT 906 (IS-906)",
    "line1": "1 27513U 02041A   26171.19082373  .00000006  00000+0  00000+0 0  9999",
    "line2": "2 27513   5.8098  72.8851 0004435   0.9940 327.3730  1.00270726 87059"
  },
  {
    "name": "GALAXY 13 (HORIZONS-1)",
    "line1": "1 27954U 03044A   26171.44697670  .00000128  00000+0  00000+0 0  9997",
    "line2": "2 27954   1.4272  83.8231 0002186 358.3330 197.4020  1.00272486 46601"
  },
  {
    "name": "INTELSAT 10-02",
    "line1": "1 28358U 04022A   26171.39181049 -.00000016  00000+0  00000+0 0  9992",
    "line2": "2 28358   0.0164 305.9154 0000101 152.4907 310.2364  1.00270649 80585"
  },
  {
    "name": "DIRECTV 8",
    "line1": "1 28659U 05019A   26171.31433647 -.00000003  00000+0  00000+0 0  9995",
    "line2": "2 28659   0.0188  33.3038 0003095  61.8276 167.4965  1.00271999 77107"
  },
  {
    "name": "GALAXY 28 (G-28)",
    "line1": "1 28702U 05022A   26171.38661045 -.00000205  00000+0  00000+0 0  9994",
    "line2": "2 28702   3.3063  78.8948 0002814  10.7889 291.0100  1.00270752 52002"
  },
  {
    "name": "GALAXY 16 (G-16)",
    "line1": "1 29236U 06023A   26171.37239705 -.00000131  00000+0  00000+0 0  9990",
    "line2": "2 29236   0.0399 169.8247 0002593 277.9696 215.8483  1.00271600 73005"
  },
  {
    "name": "DIRECTV 9S",
    "line1": "1 29494U 06043A   26171.35461541 -.00000118  00000+0  00000+0 0  9996",
    "line2": "2 29494   2.4300  80.8686 0005074  14.6015 199.5571  1.00271223 51414"
  },
  {
    "name": "GALAXY 17 (G-17)",
    "line1": "1 31307U 07016B   26171.37517041 -.00000211  00000+0  00000+0 0  9996",
    "line2": "2 31307   2.9813  79.8634 0004780  19.9713 218.7990  1.00271439 69834"
  },
  {
    "name": "HORIZONS-2",
    "line1": "1 32388U 07063B   26171.37127980 -.00000259  00000+0  00000+0 0  9999",
    "line2": "2 32388   2.6113  80.5890 0003923   0.1145 247.7301  1.00272829 67847"
  },
  {
    "name": "DIRECTV 11",
    "line1": "1 32729U 08013A   26170.94465848 -.00000131  00000+0  00000+0 0  9993",
    "line2": "2 32729   0.0260 219.1273 0000180 197.2081  92.7255  1.00271356 45627"
  },
  {
    "name": "GALAXY 18 (G-18)",
    "line1": "1 32951U 08024A   26171.39489199  .00000021  00000+0  00000+0 0  9994",
    "line2": "2 32951   0.0235  71.4002 0002919  16.2942 200.0680  1.00271433 45883"
  },
  {
    "name": "GALAXY 19 (G-19)",
    "line1": "1 33376U 08045A   26171.37283038 -.00000144  00000+0  00000+0 0  9998",
    "line2": "2 33376   0.0278 264.2718 0002625 191.2038 210.3278  1.00271248 64930"
  },
  {
    "name": "FM-5",
    "line1": "1 35493U 09034A   26171.38377977 -.00000205  00000+0  00000+0 0  9994",
    "line2": "2 35493   0.0202 292.9387 0000851  30.9605 356.6938  1.00272217 46672"
  },
  {
    "name": "INTELSAT 14 (IS-14)",
    "line1": "1 36097U 09064A   26171.38305711 -.00000278  00000+0  00000+0 0  9995",
    "line2": "2 36097   0.0165 337.1078 0002399 111.3226 273.0700  1.00271535 60635"
  },
  {
    "name": "INTELSAT 15 (IS-15)",
    "line1": "1 36106U 09067A   26171.40883872 -.00000190  00000+0  00000+0 0  9994",
    "line2": "2 36106   0.0170 354.0226 0002207  95.9991  50.9258  1.00272124 41262"
  },
  {
    "name": "DIRECTV 12",
    "line1": "1 36131U 09075A   26171.12368068 -.00000108  00000+0  00000+0 0  9994",
    "line2": "2 36131   0.0333 172.6604 0000305 302.1866  95.2890  1.00271840 46584"
  },
  {
    "name": "INTELSAT 16 (IS-16)",
    "line1": "1 36397U 10006A   26171.37127980 -.00000249  00000+0  00000+0 0  9993",
    "line2": "2 36397   0.0099 356.3368 0002056 106.8746 222.8266  1.00272107 59683"
  },
  {
    "name": "XM-5",
    "line1": "1 37185U 10053A   26171.31433647 -.00000028  00000+0  00000+0 0  9990",
    "line2": "2 37185   0.0612 272.6077 0002705 287.8737  66.0100  1.00272741 57517"
  },
  {
    "name": "INTELSAT 17 (IS-17)",
    "line1": "1 37238U 10065B   26171.40511204 -.00000006  00000+0  00000+0 0  9994",
    "line2": "2 37238   0.0074 105.9067 0002686   3.4204  11.1218  1.00272377 53280"
  },
  {
    "name": "INTELSAT 28 (IS-28)",
    "line1": "1 37392U 11016A   26171.38574377 -.00000230  00000+0  00000+0 0  9998",
    "line2": "2 37392   1.8156  82.5854 0003722   7.6584 285.4997  1.00271258 53315"
  },
  {
    "name": "INTELSAT 18 (IS-18)",
    "line1": "1 37834U 11056A   26171.35634845  .00000048  00000+0  00000+0 0  9993",
    "line2": "2 37834   0.0337 273.9541 0001818 176.4973 126.3906  1.00271683 53841"
  },
  {
    "name": "INTELSAT 22 (IS-22)",
    "line1": "1 38098U 12011A   26173.47377564 -.00000057  00000+0  00000+0 0  9996",
    "line2": "2 38098   0.0229  60.1145 0001505  39.0331  54.1799  1.00272600  7246"
  },
  {
    "name": "INTELSAT 19 (IS-19)",
    "line1": "1 38356U 12030A   26171.37822667 -.00000061  00000+0  00000+0 0  9995",
    "line2": "2 38356   0.0149  26.2915 0003032  71.0261 113.4249  1.00271802 50483"
  },
  {
    "name": "INTELSAT 20 (IS-20)",
    "line1": "1 38740U 12043A   26173.47299564 -.00000022  00000+0  00000+0 0  9990",
    "line2": "2 38740   0.0056  44.4069 0001249 142.7135 322.3051  1.00267817 50802"
  },
  {
    "name": "INTELSAT 11 (IS-11)",
    "line1": "1 32253U 07044B   26171.05797054 -.00000176  00000+0  00000+0 0  9997",
    "line2": "2 32253   3.5740  78.6372 0002522  87.4130 236.3380  0.99049599 68477"
  },
  {
    "name": "INTELSAT 25 (IS-25)",
    "line1": "1 33153U 08034A   26171.41325874 -.00000133  00000+0  00000+0 0  9997",
    "line2": "2 33153   2.7194  80.3377 0003595  60.7301  23.6093  0.99033445 65727"
  }
]